0 THORAD AGENA D DEB
1 04650U 70025AJ  13283.00574214  .00000391  00000-0  26255-3 0  8185
2 04650 099.9000 291.2430 0124723 078.4239 283.0896 14.03580369206853
0 THORAD AGENA D DEB
1 04650U 70025AJ  13285.64325653  .00000406  00000-0  27158-3 0  8201
2 04650 099.8993 294.1128 0124648 071.3503 290.1147 14.03582134207223
0 THORAD AGENA D DEB
1 04650U 70025AJ  13286.99765230  .00000490  00000-0  32200-3 0  8217
2 04650 099.8990 295.5865 0124554 067.7148 293.7168 14.03583250207416
0 THORAD AGENA D DEB
1 04650U 70025AJ  13288.49461348  .00000727  00000-0  46256-3 0  8227
2 04650 099.8988 297.2151 0124463 063.6930 297.6957 14.03585861207625
0 THORAD AGENA D DEB
1 04650U 70025AJ  13289.56386900  .00000635  00000-0  40806-3 0  8230
2 04650 099.8987 298.3783 0124372 060.8102 300.5437 14.03587489207777
0 THORAD AGENA D DEB
1 04650U 70025AJ  13290.98953997  .00000657  00000-0  42105-3 0  8243
2 04650 099.8988 299.9292 0124249 056.9619 304.3408 14.03588821207975
0 THORAD AGENA D DEB
1 04650U 70025AJ  13292.48649173  .00000786  00000-0  49799-3 0  8258
2 04650 099.8990 301.5576 0124150 052.9199 308.3239 14.03590309208187
0 THORAD AGENA D DEB
1 04650U 70025AJ  13293.62702424  .00000920  00000-0  57771-3 0  8264
2 04650 099.8991 302.7983 0124067 049.8427 311.3525 14.03591346208341
0 THORAD AGENA D DEB
1 04650U 70025AJ  13294.83883837  .00001018  00000-0  63650-3 0  8279
2 04650 099.8991 304.1165 0123989 046.5739 314.5664 14.03593412208515
0 THORAD AGENA D DEB
1 04650U 70025AJ  13295.97936784  .00001060  00000-0  66114-3 0  8281
2 04650 099.8990 305.3572 0123953 043.5150 317.5713 14.03595240208670
